[{"OBJECT_NAME":"HAWK-9B","OBJECT_ID":"2024-066J","EPOCH":"2026-03-09T10:21:05.061312","MEAN_MOTION":14.9877824,"ECCENTRICITY":0.00037519,"INCLINATION":45.6215,"RA_OF_ASC_NODE":73.5456,"ARG_OF_PERICENTER":229.3903,"MEAN_ANOMALY":130.6652,"EPHEMERIS_TYPE":0,"CLASSIFICATION_TYPE":"U","NORAD_CAT_ID":59450,"ELEMENT_SET_NO":999,"REV_AT_EPOCH":10486,"BSTAR":0.00023214291,"MEAN_MOTION_DOT":2.608e-5,"MEAN_MOTION_DDOT":0},{"OBJECT_NAME":"STARLINK-36222","OBJECT_ID":"2025-298Y","EPOCH":"2026-03-09T22:53:06.775296","MEAN_MOTION":14.99141398,"ECCENTRICITY":0.00022361,"INCLINATION":70.0024,"RA_OF_ASC_NODE":13.9162,"ARG_OF_PERICENTER":269.1734,"MEAN_ANOMALY":90.9169,"EPHEMERIS_TYPE":0,"CLASSIFICATION_TYPE":"U","NORAD_CAT_ID":67097,"ELEMENT_SET_NO":999,"REV_AT_EPOCH":1325,"BSTAR":0.00064348997,"MEAN_MOTION_DOT":7.756e-5,"MEAN_MOTION_DDOT":0}]
